NORAD_CAT_ID,OBJECT_NAME,OBJECT_TYPE,EPOCH,MEAN_MOTION,ECCENTRICITY,INCLINATION,RA_OF_ASC_NODE,ARG_OF_PERICENTER,MEAN_ANOMALY,BSTAR,MEAN_MOTION_DOT,MEAN_MOTION_DDOT,TLE_LINE0,TLE_LINE1,TLE_LINE2,SEMIMAJOR_AXIS,PERIOD,APOGEE,PERIGEE,DECAYED
55316.0,STARLINK-5257,PAYLOAD,2024-01-12 12:18:01,14.983097,0.0002081,70.0023,189.1096,233.344,126.7528,-0.00022078,-2.725e-05,0.0,0 STARLINK-5257,1 55316U 23010AZ  24012.51251455 -.00002725  00000-0 -22078-3 0  9993,2 55316  70.0023 189.1096 0002081 233.3440 126.7528 14.98309700 55550,6950.256,96.108,573.567,570.674,0.0
55316.0,STARLINK-5257,PAYLOAD,2024-01-12 13:54:09,14.98309488,0.0002349,70.0018,188.9425,241.0163,119.0761,-0.00026172,-3.212e-05,0.0,0 STARLINK-5257,1 55316U 23010AZ  24012.57927651 -.00003212  00000-0 -26172-3 0  9998,2 55316  70.0018 188.9425 0002349 241.0163 119.0761 14.98309488 56741,6950.256,96.108,573.754,570.489,0.0
55316.0,STARLINK-5257,PAYLOAD,2024-01-12 21:54:48,14.98320447,0.0002777,70.0001,188.0953,268.8005,91.2835,-6.0184e-05,-8.11e-06,0.0,0 STARLINK-5257,1 55316U 23010AZ  24012.91306687 -.00000811  00000-0 -60184-4 0  9990,2 55316  70.0001 188.0953 0002777 268.8005  91.2835 14.98320447 56793,6950.222,96.108,574.018,570.157,0.0
55316.0,STARLINK-5257,PAYLOAD,2024-01-13 12:20:01,14.98327736,0.0003141,69.9993,186.5802,271.5168,88.5631,3.406e-05,3.13e-06,0.0,0 STARLINK-5257,1 55316U 23010AZ  24013.51390175  .00000313  00000-0  34060-4 0  9991,2 55316  69.9993 186.5802 0003141 271.5168  88.5631 14.98327736 55704,6950.2,96.107,574.248,569.882,0.0
55316.0,STARLINK-5257,PAYLOAD,2024-01-13 13:56:09,14.98328586,0.0003132,69.9994,186.4119,271.2054,88.8746,4.5007e-05,4.44e-06,0.0,0 STARLINK-5257,1 55316U 23010AZ  24013.58066117  .00000444  00000-0  45007-4 0  9992,2 55316  69.9994 186.4119 0003132 271.2054  88.8746 14.98328586 56891,6950.197,96.107,574.239,569.885,0.0
55316.0,STARLINK-5257,PAYLOAD,2024-01-13 21:56:45,14.98377941,0.0002445,70.0005,185.5709,279.1138,80.9744,0.00061159,7.221e-05,0.0,0 STARLINK-5257,1 55316U 23010AZ  24013.91441777  .00007221  00000-0  61159-3 0  9993,2 55316  70.0005 185.5709 0002445 279.1138  80.9744 14.98377941 55763,6950.045,96.104,573.609,570.21,0.0
55316.0,STARLINK-5257,PAYLOAD,2024-01-14 12:22:02,14.98302934,0.0003458,69.9996,184.0557,275.2473,84.8291,-0.00016528,-2.063e-05,0.0,0 STARLINK-5257,1 55316U 23010AZ  24014.51530926 -.00002063  00000-0 -16528-3 0  9996,2 55316  69.9996 184.0557 0003458 275.2473  84.8291 14.98302934 55858,6950.277,96.109,574.545,569.738,0.0
55316.0,STARLINK-5257,PAYLOAD,2024-01-14 13:58:10,14.98302963,0.0003524,69.9991,183.8875,274.8303,85.2453,-0.00020445,-2.53e-05,0.0,0 STARLINK-5257,1 55316U 23010AZ  24014.58207082 -.00002530  00000-0 -20445-3 0  9999,2 55316  69.9991 183.8875 0003524 274.8303  85.2453 14.98302963 57044,6950.277,96.109,574.591,569.692,0.0
55316.0,STARLINK-5257,PAYLOAD,2024-01-14 21:58:51,14.98301164,0.0002885,70.0002,183.0461,259.4718,100.6116,-0.00018406,-2.287e-05,0.0,0 STARLINK-5257,1 55316U 23010AZ  24014.91587512 -.00002287  00000-0 -18406-3 0  9998,2 55316  70.0002 183.0461 0002885 259.4718 100.6116 14.98301164 57096,6950.282,96.109,574.152,570.142,0.0
55316.0,STARLINK-5257,PAYLOAD,2024-01-15 12:24:03,14.98321058,0.0003605,69.9988,181.5297,277.8196,82.2554,-0.00026203,-3.218e-05,0.0,0 STARLINK-5257,1 55316U 23010AZ  24015.51670895 -.00003218  00000-0 -26203-3 0  9991,2 55316  69.9988 181.5297 0003605 277.8196  82.2554 14.98321058 56006,6950.221,96.108,574.591,569.58,0.0
55316.0,STARLINK-5257,PAYLOAD,2024-01-15 14:00:11,14.98323294,0.0003548,69.9991,181.3618,277.3523,82.7232,-0.00023364,-2.879e-05,0.0,0 STARLINK-5257,1 55316U 23010AZ  24015.58346683 -.00002879  00000-0 -23364-3 0  9990,2 55316  69.9991 181.3618 0003548 277.3523  82.7232 14.98323294 57193,6950.214,96.107,574.545,569.613,0.0
55316.0,STARLINK-5257,PAYLOAD,2024-01-15 20:24:43,14.9832827,0.000327,69.9995,180.6892,272.941,87.1375,-0.00014731,-1.85e-05,0.0,0 STARLINK-5257,1 55316U 23010AZ  24015.85050147 -.00001850  00000-0 -14731-3 0  9993,2 55316  69.9995 180.6892 0003270 272.9410  87.1375 14.98328270 57232,6950.198,96.107,574.336,569.791,0.0
55316.0,STARLINK-5257,PAYLOAD,2024-01-16 14:02:11,14.98308822,0.0003307,69.9994,178.8376,270.7303,89.3477,0.00025633,2.965e-05,0.0,0 STARLINK-5257,1 55316U 23010AZ  24016.58485739  .00002965  00000-0  25633-3 0  9992,2 55316  69.9994 178.8376 0003307 270.7303  89.3477 14.98308822 57345,6950.258,96.108,574.422,569.825,0.0
55316.0,STARLINK-5257,PAYLOAD,2024-01-16 20:26:43,14.98316262,0.0003173,69.9998,178.1651,268.1193,91.9602,0.00032401,3.774e-05,0.0,0 STARLINK-5257,1 55316U 23010AZ  24016.85189381  .00003774  00000-0  32401-3 0  9996,2 55316  69.9998 178.1651 0003173 268.1193  91.9602 14.98316262 57387,6950.235,96.108,574.306,569.895,0.0
55316.0,STARLINK-5257,PAYLOAD,2024-01-17 12:28:03,14.98338926,0.00032,69.9998,176.4796,265.2894,94.79,0.00025883,2.997e-05,0.0,0 STARLINK-5257,1 55316U 23010AZ  24017.51948252  .00002997  00000-0  25883-3 0  9992,2 55316  69.9998 176.4796 0003200 265.2894  94.7900 14.98338926 56309,6950.165,96.106,574.254,569.806,0.0
55316.0,STARLINK-5257,PAYLOAD,2024-01-17 14:04:11,14.98339971,0.000311,70.0,176.3107,268.5559,91.5244,0.00027793,3.226e-05,0.0,0 STARLINK-5257,1 55316U 23010AZ  24017.58624125  .00003226  00000-0  27793-3 0  9997,2 55316  70.0000 176.3107 0003110 268.5559  91.5244 14.98339971 57493,6950.162,96.106,574.189,569.866,0.0
55316.0,STARLINK-5257,PAYLOAD,2024-01-17 18:52:34,14.98349582,0.0002433,70.0037,175.813,222.2849,137.8123,0.00027069,3.14e-05,0.0,0 STARLINK-5257,1 55316U 23010AZ  24017.78651217  .00003140  00000-0  27069-3 0  9992,2 55316  70.0037 175.8130 0002433 222.2849 137.8123 14.98349582 56341,6950.132,96.106,573.688,570.306,0.0
55316.0,STARLINK-5257,PAYLOAD,2024-01-17 20:28:42,14.98360789,0.000298,70.0006,175.6427,264.694,95.3879,0.00027502,3.193e-05,0.0,0 STARLINK-5257,1 55316U 23010AZ  24017.85326702  .00003193  00000-0  27502-3 0  9998,2 55316  70.0006 175.6427 0002980 264.6940  95.3879 14.98360789 57533,6950.098,96.105,574.034,569.892,0.0
55316.0,STARLINK-5257,PAYLOAD,2024-01-18 12:30:04,14.98333923,0.0003558,69.9988,173.9575,279.9078,80.1679,-0.0001069,-1.369e-05,0.0,0 STARLINK-5257,1 55316U 23010AZ  24018.52089011 -.00001369  00000-0 -10690-3 0  9997,2 55316  69.9988 173.9575 0003558 279.9078  80.1679 14.98333923 56457,6950.181,96.107,574.519,569.573,0.0
55316.0,STARLINK-5257,PAYLOAD,2024-01-18 14:06:13,14.98332332,0.0003521,69.9991,173.7886,280.5375,79.5388,-0.00010909,-1.395e-05,0.0,0 STARLINK-5257,1 55316U 23010AZ  24018.58765106 -.00001395  00000-0 -10909-3 0  9991,2 55316  69.9991 173.7886 0003521 280.5375  79.5388 14.98332332 57646,6950.186,96.107,574.498,569.604,0.0
55316.0,STARLINK-5257,PAYLOAD,2024-01-18 20:30:45,14.9833424,0.0003419,69.9993,173.1174,271.8739,88.2029,-9.301e-05,-1.203e-05,0.0,0 STARLINK-5257,1 55316U 23010AZ  24018.85468753 -.00001203  00000-0 -93010-4 0  9992,2 55316  69.9993 173.1174 0003419 271.8739  88.2029 14.98334240 57688,6950.18,96.107,574.421,569.669,0.0
55316.0,STARLINK-5257,PAYLOAD,2024-01-19 12:32:05,14.98344247,0.0003207,70.0001,171.4341,273.5581,86.5211,-0.00027575,-3.383e-05,0.0,0 STARLINK-5257,1 55316U 23010AZ  24019.52228514 -.00003383  00000-0 -27575-3 0  9999,2 55316  70.0001 171.4341 0003207 273.5581  86.5211 14.98344247 56600,6950.149,96.106,574.243,569.785,0.0
55316.0,STARLINK-5257,PAYLOAD,2024-01-19 14:08:13,14.98343717,0.0003196,70.0,171.2656,274.1568,85.9226,-0.00025934,-3.187e-05,0.0,0 STARLINK-5257,1 55316U 23010AZ  24019.58904444 -.00003187  00000-0 -25934-3 0  9997,2 55316  70.0000 171.2656 0003196 274.1568  85.9226 14.98343717 57796,6950.15,96.106,574.237,569.794,0.0
55316.0,STARLINK-5257,PAYLOAD,2024-01-19 18:56:37,14.98348657,0.0003047,70.0004,170.7605,274.7616,85.3195,-0.00019014,-2.362e-05,0.0,0 STARLINK-5257,1 55316U 23010AZ  24019.78931755 -.00002362  00000-0 -19014-3 0  9990,2 55316  70.0004 170.7605 0003047 274.7616  85.3195 14.98348657 57824,6950.135,96.106,574.118,569.882,0.0
55316.0,STARLINK-5257,PAYLOAD,2024-01-20 10:57:58,14.98321885,0.0002646,70.001,169.0772,273.1306,86.955,5.2167e-05,5.29e-06,0.0,0 STARLINK-5257,1 55316U 23010AZ  24020.45692597  .00000529  00000-0  52167-4 0  9992,2 55316  70.0010 169.0772 0002646 273.1306  86.9550 14.98321885 56746,6950.218,96.108,573.922,570.244,0.0
55316.0,STARLINK-5257,PAYLOAD,2024-01-20 14:10:14,14.98321563,0.0002663,70.001,168.7407,272.8237,87.2618,4.3994e-05,4.32e-06,0.0,0 STARLINK-5257,1 55316U 23010AZ  24020.59044700  .00000432  00000-0  43994-4 0  9995,2 55316  70.0010 168.7407 0002663 272.8237  87.2618 14.98321563 57940,6950.219,96.108,573.935,570.233,0.0
55316.0,STARLINK-5257,PAYLOAD,2024-01-20 18:58:38,14.983222,0.0002654,70.0011,168.2359,272.7594,87.3261,4.7589e-05,4.75e-06,0.0,0 STARLINK-5257,1 55316U 23010AZ  24020.79072745  .00000475  00000-0  47589-4 0  9998,2 55316  70.0011 168.2359 0002654 272.7594  87.3261 14.98322200 57974,6950.217,96.107,573.927,570.237,0.0
55316.0,STARLINK-5257,PAYLOAD,2024-01-21 12:36:07,14.98332268,0.0002683,70.0011,166.3843,267.3807,92.7044,1.2678e-05,5.8e-07,0.0,0 STARLINK-5257,1 55316U 23010AZ  24021.52508247  .00000058  00000-0  12678-4 0  9999,2 55316  70.0011 166.3843 0002683 267.3807  92.7044 14.98332268 56906,6950.186,96.107,573.916,570.186,0.0
55316.0,STARLINK-5257,PAYLOAD,2024-01-21 19:00:39,14.98334427,0.0002719,70.0011,165.7111,271.4046,88.6802,3.4411e-05,3.18e-06,0.0,0 STARLINK-5257,1 55316U 23010AZ  24021.79212023  .00000318  00000-0  34411-4 0  9990,2 55316  70.0011 165.7111 0002719 271.4046  88.6802 14.98334427 58129,6950.179,96.107,573.934,570.154,0.0
55316.0,STARLINK-5257,PAYLOAD,2024-01-22 19:02:40,14.98326995,0.0002686,70.0013,163.187,263.3432,96.7421,2.4535e-05,2e-06,0.0,0 STARLINK-5257,1 55316U 23010AZ  24022.79352543  .00000200  00000-0  24535-4 0  9999,2 55316  70.0013 163.1870 0002686 263.3432  96.7421 14.98326995 57090,6950.202,96.107,573.934,570.2,0.0
